[{"OBJECT_NAME":"STARLINK-5953","OBJECT_ID":"2023-078AJ","EPOCH":"2026-03-09T22:00:21.196800","MEAN_MOTION":14.98328807,"ECCENTRICITY":0.00025563,"INCLINATION":70.0008,"RA_OF_ASC_NODE":343.9061,"ARG_OF_PERICENTER":270.8954,"MEAN_ANOMALY":89.1912,"EPHEMERIS_TYPE":0,"CLASSIFICATION_TYPE":"U","NORAD_CAT_ID":56799,"ELEMENT_SET_NO":999,"REV_AT_EPOCH":15271,"BSTAR":-4.599535e-6,"MEAN_MOTION_DOT":-1.48e-6,"MEAN_MOTION_DDOT":0},{"OBJECT_NAME":"ION SCV-022","OBJECT_ID":"2025-276S","EPOCH":"2026-03-09T17:53:05.489952","MEAN_MOTION":14.97347265,"ECCENTRICITY":0.00045393,"INCLINATION":97.5376,"RA_OF_ASC_NODE":142.978,"ARG_OF_PERICENTER":154.7099,"MEAN_ANOMALY":205.4346,"EPHEMERIS_TYPE":0,"CLASSIFICATION_TYPE":"U","NORAD_CAT_ID":66682,"ELEMENT_SET_NO":999,"REV_AT_EPOCH":1519,"BSTAR":0.00017276803,"MEAN_MOTION_DOT":1.95e-5,"MEAN_MOTION_DDOT":0}]
